AOR-E (EGNOS/PRN 120)   
1 24307U 96053A   12041.08561690 -.00000127  00000-0  10000-3 0   909
2 24307   0.1260  41.5338 0006030 267.4041 205.9618  1.00272264 56493
ARTEMIS (EGNOS/PRN 124) 
1 26863U 01029A   12041.75948181  .00000117  00000-0  10000-3 0  2477
2 26863   9.6556  56.0854 0003599 296.0195  82.9409  1.00275813 39869
MTSAT-1R (MSAS/PRN 129) 
1 28622U 05006A   12038.58384596 -.00000283  00000-0  10000-3 0  6156
2 28622   0.0234 266.8940 0000550  68.1437 152.2633  1.00271112 25436
CRE (WAAS/PRN 138)      
1 28868U 05036A   12039.52907122 -.00000077  00000-0  10000-3 0  9437
2 28868   0.0159  48.6121 0001405 279.7963 252.7565  1.00271269 23582
CRW (WAAS/PRN 135)      
1 28884U 05041A   12041.41037491  .00000074  00000-0  10000-3 0  2883
2 28884   0.0105  52.0250 0002569 261.1456 201.4382  1.00272885 23197
IOR-W (EGNOS/PRN 126)   
1 28899U 05044A   12040.26374084  .00000136  00000-0  10000-3 0   838
2 28899   2.2123 337.7923 0004098 340.0028 300.9705  1.00275103 22951
MTSAT-2 (MSAS/PRN 137)  
1 28937U 06004A   12042.58131993 -.00000248  00000-0  10000-3 0  1066
2 28937   0.0166 183.2932 0002087 157.5775 154.5074  1.00270812 21950
AMR (WAAS/PRN 133)      
1 33278U 08039A   12042.42251356 -.00000144  00000-0  10000-3 0  5552
2 33278   3.0024 342.0295 0002883 336.7314 236.5802  1.00272085 12797
QZS-1 (QZSS/PRN 183)    
1 37158U 10045A   12042.52073793 -.00000130  00000-0  10000-3 0  2575
2 37158  40.7563 187.6907 0749814 270.0667   7.0237  1.00269236  5216
GSAT 8 (GAGAN/PRN 127)  
1 37605U 11022A   12042.08351039  .00000079  00000-0  10000-3 0  1504
2 37605   0.0940 263.9340 0006323  16.5990 305.1378  1.00272078  2700
